CTC1_L_00108016-03
1 10062U 22037BJ  26075.70030093  .00000000  00000+0  00000-0 0  9994
2 10062  50.0000 180.0000 0000000   0.0000   0.0000 14.33516687    10
CTC1_L_00108016-04
1 10063U 22087QZ  26075.70030093  .00000000  00000+0  00000-0 0  9990
2 10063  50.0000 180.0000 0000000   0.0000  90.0000 14.33516687    10
CTC1_L_00108017-01
1 10064U 26498IQ  26075.70030093  .00000000  00000+0  00000-0 0  9991
2 10064  50.0000 192.0000 0000000   0.0000 192.0000 14.33516687    17
CTC1_L_00108017-02
1 10065U 22928DY  26075.70030093  .00000000  00000+0  00000-0 0  9996
2 10065  50.0000 192.0000 0000000   0.0000 282.0000 14.33516687    18
CTC1_L_00108017-03
1 10066U 24977HZ  26075.70030093  .00000000  00000+0  00000-0 0  9993
2 10066  50.0000 192.0000 0000000   0.0000  12.0000 14.33516687    10
CTC1_L_00108017-04
1 10067U 26082WH  26075.70030093  .00000000  00000+0  00000-0 0  9993
2 10067  50.0000 192.0000 0000000   0.0000 102.0000 14.33516687    11
CTC1_L_00108018-01
1 10068U 26482VQ  26075.70030093  .00000000  00000+0  00000-0 0  9998
2 10068  50.0000 204.0000 0000000   0.0000 204.0000 14.33516687    19
CTC1_L_00108018-02
1 10069U 23525OD  26075.70030093  .00000000  00000+0  00000-0 0  9994
2 10069  50.0000 204.0000 0000000   0.0000 294.0000 14.33516687    19
CTC1_L_00108018-03
1 10070U 22043SI  26075.70030093  .00000000  00000+0  00000-0 0  9990
2 10070  50.0000 204.0000 0000000   0.0000  24.0000 14.33516687    12
CTC1_L_00108018-04
1 10071U 23122NQ  26075.70030093  .00000000  00000+0  00000-0 0  9990
2 10071  50.0000 204.0000 0000000   0.0000 114.0000 14.33516687    13
CTC1_L_00108019-01
1 10072U 24602OW  26075.70030093  .00000000  00000+0  00000-0 0  9995
2 10072  50.0000 216.0000 0000000   0.0000 216.0000 14.33516687    10
CTC1_L_00108019-02
1 10073U 25969UI  26075.70030093  .00000000  00000+0  00000-0 0  9993
2 10073  50.0000 216.0000 0000000   0.0000 306.0000 14.33516687    11
CTC1_L_00108019-03
1 10074U 23644JN  26075.70030093  .00000000  00000+0  00000-0 0  9992
2 10074  50.0000 216.0000 0000000   0.0000  36.0000 14.33516687    12
CTC1_L_00108019-04
1 10075U 26930NN  26075.70030093  .00000000  00000+0  00000-0 0  9994
2 10075  50.0000 216.0000 0000000   0.0000 126.0000 14.33516687    13
CTC1_L_00108020-01
1 10076U 24141TN  26075.70030093  .00000000  00000+0  00000-0 0  9997
2 10076  50.0000 228.0000 0000000   0.0000 228.0000 14.33516687    10
CTC1_L_00108020-02
1 10077U 22215EO  26075.70030093  .00000000  00000+0  00000-0 0  9998
2 10077  50.0000 228.0000 0000000   0.0000 318.0000 14.33516687    11
CTC1_L_00108020-03
1 10078U 26313JR  26075.70030093  .00000000  00000+0  00000-0 0  9992
2 10078  50.0000 228.0000 0000000   0.0000  48.0000 14.33516687    12
CTC1_L_00108020-04
1 10079U 24009TZ  26075.70030093  .00000000  00000+0  00000-0 0  9993
2 10079  50.0000 228.0000 0000000   0.0000 138.0000 14.33516687    13
CTC1_L_00108021-01
1 10080U 22043SG  26075.70030093  .00000000  00000+0  00000-0 0  9991
2 10080  50.0000 240.0000 0000000   0.0000 240.0000 14.33516687    13
CTC1_L_00108021-02
1 10081U 24240B   26075.70030093  .00000000  00000+0  00000-0 0  9993
2 10081  50.0000 240.0000 0000000   0.0000 330.0000 14.33516687    14
CTC1_L_00108021-03
1 10082U 22467NJ  26075.70030093  .00000000  00000+0  00000-0 0  9993
2 10082  50.0000 240.0000 0000000   0.0000  60.0000 14.33516687    15
CTC1_L_00108021-04
1 10083U 22089RC  26075.70030093  .00000000  00000+0  00000-0 0  9994
2 10083  50.0000 240.0000 0000000   0.0000 150.0000 14.33516687    16
CTC1_L_00108022-01
1 10084U 25177II  26075.70030093  .00000000  00000+0  00000-0 0  9996
2 10084  50.0000 252.0000 0000000   0.0000 252.0000 14.33516687    13
CTC1_L_00108022-02
1 10085U 25712VF  26075.70030093  .00000000  00000+0  00000-0 0  9992
2 10085  50.0000 252.0000 0000000   0.0000 342.0000 14.33516687    14
CTC1_L_00108022-03
1 10086U 23642QL  26075.70030093  .00000000  00000+0  00000-0 0  9993
2 10086  50.0000 252.0000 0000000   0.0000  72.0000 14.33516687    15
CTC1_L_00108022-04
1 10087U 24150IB  26075.70030093  .00000000  00000+0  00000-0 0  9999
2 10087  50.0000 252.0000 0000000   0.0000 162.0000 14.33516687    16
CTC1_L_00108023-01
1 10088U 22621QI  26075.70030093  .00000000  00000+0  00000-0 0  9991
2 10088  50.0000 264.0000 0000000   0.0000 264.0000 14.33516687    13
CTC1_L_00108023-02
1 10089U 25235AU  26075.70030093  .00000000  00000+0  00000-0 0  9996
2 10089  50.0000 264.0000 0000000   0.0000 354.0000 14.33516687    14
CTC1_L_00108023-03
1 10090U 25666TS  26075.70030093  .00000000  00000+0  00000-0 0  9996
2 10090  50.0000 264.0000 0000000   0.0000  84.0000 14.33516687    16
CTC1_L_00108023-04
1 10091U 25779TD  26075.70030093  .00000000  00000+0  00000-0 0  9992
2 10091  50.0000 264.0000 0000000   0.0000 174.0000 14.33516687    17
CTC1_L_00108024-01
1 10092U 25834O   26075.70030093  .00000000  00000+0  00000-0 0  9995
2 10092  50.0000 276.0000 0000000   0.0000 276.0000 14.33516687    14
CTC1_L_00108024-02
1 10093U 24028LM  26075.70030093  .00000000  00000+0  00000-0 0  9990
2 10093  50.0000 276.0000 0000000   0.0000   6.0000 14.33516687    16
CTC1_L_00108024-03
1 10094U 22325CO  26075.70030093  .00000000  00000+0  00000-0 0  9999
2 10094  50.0000 276.0000 0000000   0.0000  96.0000 14.33516687    16
CTC1_L_00108024-04
1 10095U 26978TB  26075.70030093  .00000000  00000+0  00000-0 0  9998
2 10095  50.0000 276.0000 0000000   0.0000 186.0000 14.33516687    17
CTC1_L_00108025-01
1 10096U 25911PF  26075.70030093  .00000000  00000+0  00000-0 0  9995
2 10096  50.0000 288.0000 0000000   0.0000 288.0000 14.33516687    14
CTC1_L_00108025-02
1 10097U 25960JD  26075.70030093  .00000000  00000+0  00000-0 0  9990
2 10097  50.0000 288.0000 0000000   0.0000  18.0000 14.33516687    16
CTC1_L_00108025-03
1 10098U 23002YE  26075.70030093  .00000000  00000+0  00000-0 0  9996
2 10098  50.0000 288.0000 0000000   0.0000 108.0000 14.33516687    17
CTC1_L_00108025-04
1 10099U 22465LN  26075.70030093  .00000000  00000+0  00000-0 0  9999
2 10099  50.0000 288.0000 0000000   0.0000 198.0000 14.33516687    17
CTC1_L_00108026-01
1 10100U 23788BZ  26075.70030093  .00000000  00000+0  00000-0 0  9991
2 10100  50.0000 300.0000 0000000   0.0000 300.0000 14.33516687    10
CTC1_L_00108026-02
1 10101U 26601WE  26075.70030093  .00000000  00000+0  00000-0 0  9999
2 10101  50.0000 300.0000 0000000   0.0000  30.0000 14.33516687    11
CTC1_L_00108026-03
1 10102U 26016GG  26075.70030093  .00000000  00000+0  00000-0 0  9990
2 10102  50.0000 300.0000 0000000   0.0000 120.0000 14.33516687    12
CTC1_L_00108026-04
1 10103U 25341JV  26075.70030093  .00000000  00000+0  00000-0 0  9991
2 10103  50.0000 300.0000 0000000   0.0000 210.0000 14.33516687    13
CTC1_L_00108027-01
1 10104U 26389YK  26075.70030093  .00000000  00000+0  00000-0 0  9995
2 10104  50.0000 312.0000 0000000   0.0000 312.0000 14.33516687    10
CTC1_L_00108027-02
1 10105U 23958HB  26075.70030093  .00000000  00000+0  00000-0 0  9995
2 10105  50.0000 312.0000 0000000   0.0000  42.0000 14.33516687    11
CTC1_L_00108027-03
1 10106U 22676FO  26075.70030093  .00000000  00000+0  00000-0 0  9992
2 10106  50.0000 312.0000 0000000   0.0000 132.0000 14.33516687    12
CTC1_L_00108027-04
1 10107U 23920AN  26075.70030093  .00000000  00000+0  00000-0 0  9996
2 10107  50.0000 312.0000 0000000   0.0000 222.0000 14.33516687    13
CTC1_L_00108028-01
1 10108U 25781OS  26075.70030093  .00000000  00000+0  00000-0 0  9994
2 10108  50.0000 324.0000 0000000   0.0000 324.0000 14.33516687    10
CTC1_L_00108028-02
1 10109U 25664CS  26075.70030093  .00000000  00000+0  00000-0 0  9995
2 10109  50.0000 324.0000 0000000   0.0000  54.0000 14.33516687    11
CTC1_L_00108028-03
1 10110U 22735OO  26075.70030093  .00000000  00000+0  00000-0 0  9993
2 10110  50.0000 324.0000 0000000   0.0000 144.0000 14.33516687    13
CTC1_L_00108028-04
1 10111U 22317SZ  26075.70030093  .00000000  00000+0  00000-0 0  9990
2 10111  50.0000 324.0000 0000000   0.0000 234.0000 14.33516687    14
CTC1_L_00108029-01
1 10112U 23122ZR  26075.70030093  .00000000  00000+0  00000-0 0  9996
2 10112  50.0000 336.0000 0000000   0.0000 336.0000 14.33516687    11
CTC1_L_00108029-02
1 10113U 26449M   26075.70030093  .00000000  00000+0  00000-0 0  9992
2 10113  50.0000 336.0000 0000000   0.0000  66.0000 14.33516687    12
CTC1_L_00108029-03
1 10114U 22098ZE  26075.70030093  .00000000  00000+0  00000-0 0  9999
2 10114  50.0000 336.0000 0000000   0.0000 156.0000 14.33516687    13
CTC1_L_00108029-04
1 10115U 25276IF  26075.70030093  .00000000  00000+0  00000-0 0  9991
2 10115  50.0000 336.0000 0000000   0.0000 246.0000 14.33516687    14
CTC1_L_00108030-01
1 10116U 23200TU  26075.70030093  .00000000  00000+0  00000-0 0  9997
2 10116  50.0000 348.0000 0000000   0.0000 348.0000 14.33516687    11
CTC1_L_00108030-02
1 10117U 24964J   26075.70030093  .00000000  00000+0  00000-0 0  9996
2 10117  50.0000 348.0000 0000000   0.0000  78.0000 14.33516687    12
CTC1_L_00108030-03
1 10118U 26339AN  26075.70030093  .00000000  00000+0  00000-0 0  9995
2 10118  50.0000 348.0000 0000000   0.0000 168.0000 14.33516687    13
CTC1_L_00108030-04
1 10119U 24341RC  26075.70030093  .00000000  00000+0  00000-0 0  9997
2 10119  50.0000 348.0000 0000000   0.0000 258.0000 14.33516687    14
